#aV2012 10 25  0  0  0.00000000     288 DD+AD WGS84 FIT  NGA
## 1711 345600.00000000   300.00000000 56225 0.0000000000000
+   31     1  2  3  4  5  6  7  8  9 10 11 12 13 14 15 16 17
+         18 19 20 21 22 23 24 25 26 28 29 30 31 32  0  0  0
+          0  0  0  0  0  0  0  0  0  0  0  0  0  0  0  0  0
+          0  0  0  0  0  0  0  0  0  0  0  0  0  0  0  0  0
+          0  0  0  0  0  0  0  0  0  0  0  0  0  0  0  0  0
++         2  2  2  2  2  2  2  2  2  2  2  2  2  2  2  2  2
++         2  2  2  2  2  2  2  2  2  2  2  2  2  2  2  0  0
++         0  0  0  0  0  0  0  0  0  0  0  0  0  0  0  0  0
++         0  0  0  0  0  0  0  0  0  0  0  0  0  0  0  0  0
++         0  0  0  0  0  0  0  0  0  0  0  0  0  0  0  0  0
%c cc cc ccc ccc cccc cccc cccc cccc ccccc ccccc ccccc ccccc
%c cc cc ccc ccc cccc cccc cccc cccc ccccc ccccc ccccc ccccc
%f  0.0000000  0.000000000  0.00000000000  0.000000000000000
%f  0.0000000  0.000000000  0.00000000000  0.000000000000000
%i    0    0    0    0      0      0      0      0         0
%i    0    0    0    0      0      0      0      0         0
/*      NGA, ST. LOUIS,MO.                                  
/*   EPHEMERIS COMPUTED FROM  1 DAYS OF DATA
/*   EPOCHA SMOOTHER  
/* CCCCCCCCCCCCCCCCCCCCCCCCCCCCCCCCCCCCCCCCCCCCCCCCCCCCCCCCC
*  2012 10 25  1 15  0.00000000                                                 
P  1 -14398.024202  21703.809886   5026.246709    279.295188                    
V  1    258.635159  -7004.024814  30918.963303      0.017002                    
P  2  17334.604256  -3404.113662 -19532.685264    406.935011                    
V  2  -9113.686086  23727.447696 -12635.313020      0.011065                    
P  3 -19696.793778  -2759.654438  17219.939063    119.118951                    
V  3 -13697.852905 -18409.774122 -17858.816817      0.051862                    
P  4  11489.243293  11772.286600 -21079.213291     26.073580                    
V  4 -12206.437771  23292.165738   6740.725857      0.112005                    
P  5  26533.152719  -2314.834309    492.172768   -361.875065                    
V  5    873.323472   2974.076168 -31420.381888     -0.026886                    
P  6 -20438.138463  -8666.004067  14914.678672    476.082640                    
V  6  -9583.146784 -16215.621002 -22383.429770     -0.098927                    
P  7  -5079.987519  24153.969578   9455.118251    137.413050                    
V  7  -7512.814565   9670.710969 -29129.724600      0.045474                    
P  8   3826.735506  17557.295490  19425.909054      2.536836                    
V  8 -13900.044970  20316.405010 -16271.289611      0.001786                    
P  9  15634.456470 -19440.765519   8654.608812    194.819278                    
V  9  -3261.740922  11427.667519  29632.072774      0.027978                    
P 10  19677.588321  10030.434995 -15312.014726    -56.282487                    
V 10 -18713.155789   3000.664639 -22071.789310     -0.012345                    
P 11 -13200.420430  19223.692328  12024.069230   -316.232629                    
V 11  -1631.144675 -16743.394167  24444.580318     -0.038789                    
P 12  17508.679921 -11592.261873 -16165.611164     97.973795                    
V 12  20572.914111    659.874119  22016.673131      0.020187                    
P 13   2455.291004  22902.488126 -13256.153723    172.052812                    
V 13  -9466.602507 -13765.023464 -25900.621383     -0.026325                    
P 14 -14555.255314 -22196.682878  -2077.813102    215.490747                    
V 14    458.885653  -3580.705457  31859.719527      0.007317                    
P 15  12682.859902  -9066.891001  21495.046285    -98.044994                    
V 15  16004.723330  22213.514588    157.266339     -0.008616                    
P 16 -26705.259154   1106.948866    604.236968   -248.496886                    
V 16   -814.456777  -1837.564595 -32007.310189     -0.006366                    
P 17  15427.609104  21638.440851  -2343.206058     84.874727                    
V 17   -458.650638   4033.030631  31470.365851     -0.034815                    
P 18  -3460.369361 -15832.438692  21446.176723    221.308429                    
V 18  26386.065170  -1911.900166   2540.781258      0.018231                    
P 19 -14294.916623   5434.975516  21660.837740   -315.963279                    
V 19 -13350.339190 -24224.118501  -2329.963576     -0.034546                    
P 20 -14987.124967  14361.395046 -16692.958248     71.429554                    
V 20 -21150.927042    168.386805  19397.213528      0.010142                    
P 21    999.862951 -23348.966695  12595.730525   -257.976151                    
V 21   9761.101182 -12450.968684 -25440.057519     -0.023773                    
P 22 -17562.095525 -11382.209740  16614.274093    149.986912                    
V 22  20617.296116  -3629.570763  19398.641399      0.006186                    
P 23  -7046.074795  15324.730223 -20361.566196    150.950168                    
V 23 -15349.012577 -21144.791456 -10951.038083     -0.039040                    
P 24  -4030.425749  24582.809752   9883.156871      2.464821                    
V 24  -7381.741458  10123.729418 -28198.497038      0.016098                    
P 25   4449.007516 -15076.661168 -21438.070420     47.951648                    
V 25  27067.410889  -1620.227188   6832.199015      0.016664                    
P 26  17327.975203   5060.228212  18986.611326   -234.406193                    
V 26  11354.090693  22607.924358 -15533.190839      0.135083                    
P 28  13918.107448  12694.910277  19375.253428    198.187111                    
V 28 -23265.899699   1297.658170  16137.363461      0.036778                    
P 29  -1193.686897 -21877.315275 -14992.822302    369.739505                    
V 29  11648.596830  15266.715185 -23087.134776      0.039825                    
P 30 -23981.340265  -3698.783718 -11131.938533   -349.725907                    
V 30  13004.457794  -4630.453200 -27381.559598      0.161435                    
P 31 -12293.171817  -8140.476696 -21891.206229    282.725255                    
V 31  13080.577702 -24995.668556   2174.622738      0.022395                    
P 32 -22930.033988   7187.625750 -10553.658915   -501.448336                    
V 32 -13813.497680  -3371.712373  27747.550418     -0.036972                    
EOF
